LEMUR-2-ROUNDTRIPPER    
1 62711U 25009DG  26192.77689072  .00005456  00000+0  39714-3 0  9995
2 62711  97.7246 275.4244 0004378  71.1982 288.9719 15.04195859 81327
LEMUR-2-MYNAMEISJEFF    
1 62712U 25009DH  26192.77535732  .00005347  00000+0  38945-3 0  9993
2 62712  97.7298 275.8188 0003769 105.2846 254.8796 15.04187846 81321
LEMUR-2-LEIA-PHILIP     
1 63246U 25052AN  26192.92907026  .00000807  00000+0  74408-4 0  9991
2 63246  97.6813  84.4608 0005098 126.4901 233.6792 14.97388264 72375
LEMUR-2-LIA-MARTIN      
1 63248U 25052AQ  26192.65781543  .00003139  00000+0  27062-3 0  9991
2 63248  97.6875  84.7066 0005406  98.5199 261.6637 14.98011715 72348
LEMUR-2-DELOITTE-1      
1 63259U 25052BB  26192.70449057  .00002220  00000+0  19414-3 0  9992
2 63259  97.6886  85.0832 0002556  69.2852 290.8644 14.97765900 72366
LEMUR-2-EMERSONROSE     
1 63261U 25052BD  26192.65543939  .00003048  00000+0  25458-3 0  9997
2 63261  97.6885  85.6401 0002812  66.1030 294.0487 14.99270270 72404
LEMUR-2-MARACHE-FRAN    
1 63262U 25052BE  26192.68057115  .00001966  00000+0  16161-3 0  9995
2 63262  97.6854  86.0285 0004814 268.4363  91.6309 15.00302061 72430
LEMUR-2-THEFALCONER     
1 63264U 25052BG  26192.93489889  .00001533  00000+0  13628-3 0  9997
2 63264  97.6847  84.9044 0000474   3.9992 356.1234 14.97555399 72392
LEMUR-2-UNTITLED-SC     
1 63351U 25061A   26192.88052709  .00002354  00000+0  13423-3 0  9990
2 63351  97.5648 168.0663 0018864 174.3063 185.8386 15.13633127 71324
LEMUR-2-ESPERANZA       
1 63352U 25061B   26192.85609415  .00001811  00000+0  10385-3 0  9991
2 63352  97.5655 168.1412 0018479 173.5696 186.5776 15.13740291 71323
LEMUR-2-KREMPEL-BRO2    
1 63353U 25061C   26192.87600558  .00002429  00000+0  13631-3 0  9996
2 63353  97.5701 168.7260 0019657 166.3368 193.8400 15.14165574 71341
LEMUR-2-THERMORAPTOR    
1 63354U 25061D   26192.92282517  .00001965  00000+0  11070-3 0  9993
2 63354  97.5705 168.8529 0019426 165.0621 195.1189 15.14249085 71357
LEMUR-2-NEUROSPICY      
1 63355U 25061E   26192.82651893  .00002301  00000+0  12870-3 0  9994
2 63355  97.5633 168.3643 0017115 168.1718 191.9919 15.14366383 71349
LEMUR-2-TILLINFINITY    
1 63356U 25061F   26192.85228769  .00001969  00000+0  10880-3 0  9998
2 63356  97.5619 168.6977 0018721 156.9449 203.2627 15.14950710 71376
LEMUR-2-KREMPEL-BRO1    
1 63357U 25061G   26192.82891243  .00002240  00000+0  12394-3 0  9994
2 63357  97.5620 168.5836 0019303 158.3242 201.8812 15.14757547 71368
LEMUR-2-LANGER2SPACE    
1 63358U 25061H   26192.46392497  .00002222  00000+0  12413-3 0  9994
2 63358  97.5624 168.0248 0017035 167.8120 192.3528 15.14450351 71298
LEMUR-2-BALTO           
1 63395U 25052BH  26192.93181490  .00003059  00000+0  24849-3 0  9991
2 63395  97.6934  86.2615 0005283 341.2024  18.9004 15.00345942 72473
LEMUR-2-KRISH           
1 64561U 25135AK  26192.81705671  .00002656  00000+0  23930-3 0  9991
2 64561  97.7770 307.5283 0001627  96.8966 263.2441 14.96434298 57609
LEMUR-2-HUBBLE-4        
1 64565U 25135AP  26192.85867307  .00001122  00000+0  11146-3 0  9997
2 64565  97.7716 306.4778 0002415 171.5660 188.5601 14.93679245 57559
LEMUR-2-SEJONG-2        
1 64586U 25135BL  26192.90597815  .00002176  00000+0  19470-3 0  9998
2 64586  97.7702 307.7628 0003709 234.1005 125.9873 14.96896832 57643
LEMUR-2-HUBBLE-5        
1 64840U 25135BT  26192.86868805  .00001172  00000+0  11467-3 0  9999
2 64840  97.7737 307.1531 0004167 248.9556 111.1218 14.94207446 57593
LEMUR-2-KARENDARRELL    
1 64841U 25135BU  26192.92881349  .00004432  00000+0  35629-3 0  9993
2 64841  97.7707 309.1021 0012073 114.2075 246.0412 15.00470423 57727
LEMUR-2-LUCILLE-ROSE    
1 65403U 25135BV  26192.83555560  .00003816  00000+0  30738-3 0  9992
2 65403  97.7712 309.0456 0014466 199.4062 160.6612 15.00464612 52336
LEMUR-2-AFFIE-WAUWIE    
1 66295U 25248C   26192.44721467  .00012568  00000+0  45936-3 0  9995
2 66295  45.3896 343.4521 0008636 232.3245 127.6861 15.28146061 38300
OTTER SDM               
1 66678U 25276N   26192.93752492  .00004041  00000+0  19059-3 0  9991
2 66678  97.4210 266.0056 0004228 269.4972  90.5779 15.20033189 34172
LEMUR-2-STAS-GORBUK     
1 66686U 25276W   26192.76056604  .00003406  00000+0  16302-3 0  9995
2 66686  97.4242 265.8836 0003449 265.6939  94.3901 15.19636638 34146
LEMUR-2-TEODOR          
1 66768U 25276DG  26192.71735336  .00003149  00000+0  14384-3 0  9999
2 66768  97.4147 266.1085 0002273  90.9117 269.2380 15.21313893 34177
LEMUR-2-LAILA           
1 66776U 25276DQ  26192.75343614  .00003617  00000+0  16366-3 0  9998
2 66776  97.4172 266.2807 0002927  99.4430 260.7137 15.21539973 34181
LEMUR-2-CELIJO-SB-PK    
1 66781U 25276DW  26192.71667674  .00003423  00000+0  27784-3 0  9996
2 66781  97.5201 262.6848 0007170  72.7067 287.4941 15.00264436 26301
